{"type":"FeatureCollection", "features": [
{"type":"Feature","geometry":{"type":"Polygon","coordinates":[[[8.9172,45.1719],[8.897,45.1774],[8.8823,45.1769],[8.8774,45.1813],[8.8693,45.1811],[8.868,45.171],[8.871,45.1657],[8.8957,45.1498],[8.9033,45.1509],[8.914,45.1607],[8.9172,45.1719]]]},"properties":{"name":"Alagna","com_istat_code":"018001"}},
{"type":"Feature","geometry":{"type":"Polygon","coordinates":[[[8.7142,45.3016],[8.6906,45.2925],[8.6888,45.2826],[8.706,45.2812],[8.7205,45.2833],[8.7239,45.2881],[8.7142,45.3016]]]},"properties":{"name":"Albonese","com_istat_code":"018003"}},
{"type":"Feature","geometry":{"type":"Polygon","coordinates":[[[9.2908,45.2079],[9.2687,45.2116],[9.2598,45.2066],[9.2467,45.1866],[9.2345,45.1828],[9.2575,45.1713],[9.2535,45.1655],[9.2764,45.1692],[9.2803,45.1668],[9.2876,45.1703],[9.2887,45.1844],[9.3003,45.1924],[9.3017,45.1961],[9.2908,45.2079]]]},"properties":{"name":"Albuzzano","com_istat_code":"018004"}},
{"type":"Feature","geometry":{"type":"Polygon","coordinates":[[[9.4204,45.0935],[9.3843,45.0963],[9.3536,45.1024],[9.3438,45.1035],[9.3369,45.0999],[9.3331,45.0901],[9.3346,45.0798],[9.3447,45.0694],[9.3557,45.0682],[9.3893,45.064],[9.4064,45.0732],[9.4127,45.0837],[9.437,45.0835],[9.439,45.0934],[9.4204,45.0935]]]},"properties":{"name":"Arena Po","com_istat_code":"018005"}},
{"type":"Feature","geometry":{"type":"Polygon","coordinates":[[[9.4749,45.1317],[9.4628,45.1314],[9.4587,45.1392],[9.4482,45.1305],[9.435,45.1276],[9.4447,45.1184],[9.4555,45.1195],[9.4653,45.116],[9.4786,45.1168],[9.47,45.1221],[9.4749,45.1317]]]},"properties":{"name":"Badia Pavese","com_istat_code":"018006"}},
{"type":"Feature","geometry":{"type":"Polygon","coordinates":[[[9.1509,44.8479],[9.1426,44.8483],[9.1215,44.8438],[9.1098,44.8374],[9.1089,44.8298],[9.0951,44.819],[9.107,44.8105],[9.1261,44.8062],[9.1467,44.809],[9.156,44.8154],[9.1549,44.8216],[9.1754,44.8278],[9.1557,44.831],[9.1509,44.8479]]]},"properties":{"name":"Bagnaria","com_istat_code":"018007"}},
{"type":"Feature","geometry":{"type":"Polygon","coordinates":[[[9.2285,45.0922],[9.2278,45.0854],[9.2132,45.0812],[9.2049,45.0853],[9.2001,45.1012],[9.1825,45.0819],[9.1722,45.0593],[9.1952,45.0577],[9.1993,45.0645],[9.2106,45.0638],[9.2427,45.084],[9.2285,45.0922]]]},"properties":{"name":"Barbianello","com_istat_code":"018008"}},
{"type":"Feature","geometry":{"type":"Polygon","coordinates":[[[9.3344,45.27],[9.3322,45.2838],[9.3229,45.2927],[9.3287,45.2978],[9.343,45.2912],[9.3576,45.2926],[9.3544,45.3015],[9.3334,45.3074],[9.3218,45.3222],[9.3031,45.3272],[9.2949,45.3209],[9.2936,45.3062],[9.2981,45.2977],[9.3298,45.2761],[9.3344,45.27]]]},"properties":{"name":"Bascapè","com_istat_code":"018009"}},
{"type":"Feature","geometry":{"type":"Polygon","coordinates":[[[9.115,45.1161],[9.0948,45.1215],[9.0884,45.0992],[9.0811,45.096],[9.0639,45.1068],[9.0574,45.1027],[9.0588,45.0915],[9.0578,45.0837],[9.0639,45.0817],[9.0728,45.0747],[9.0882,45.0781],[9.1016,45.0939],[9.1137,45.0957],[9.1227,45.0996],[9.115,45.1161]]]},"properties":{"name":"Bastida Pancarana","com_istat_code":"018011"}},
{"type":"Feature","geometry":{"type":"Polygon","coordinates":[[[9.079,45.2797],[9.0713,45.2895],[9.0612,45.2883],[9.0431,45.2842],[9.0466,45.2723],[9.0602,45.2635],[9.0599,45.2564],[9.0654,45.256],[9.0829,45.2685],[9.079,45.2797]]]},"properties":{"name":"Battuda","com_istat_code":"018012"}},
{"type":"Feature","geometry":{"type":"Polygon","coordinates":[[[9.3471,45.1667],[9.3201,45.169],[9.303,45.1724],[9.2876,45.1703],[9.2803,45.1668],[9.2881,45.1591],[9.2807,45.1493],[9.2589,45.1403],[9.2618,45.1258],[9.268,45.1233],[9.2871,45.1264],[9.3006,45.1247],[9.3122,45.1195],[9.3296,45.1404],[9.3336,45.1453],[9.3196,45.152],[9.3351,45.1582],[9.3557,45.1443],[9.3574,45.1541],[9.3471,45.1667]]]},"properties":{"name":"Belgioioso","com_istat_code":"018013"}},
{"type":"Feature","geometry":{"type":"Polygon","coordinates":[[[9.0151,45.2759],[9.007,45.2781],[8.9829,45.265],[8.9827,45.2645],[8.9821,45.2535],[8.9897,45.2508],[9.0026,45.2351],[9.0147,45.2306],[9.03,45.2319],[9.0408,45.223],[9.0413,45.2384],[9.035,45.2481],[9.0414,45.2527],[9.0322,45.2695],[9.0337,45.2734],[9.0235,45.2708],[9.0151,45.2759]]]},"properties":{"name":"Bereguardo","com_istat_code":"018014"}},
{"type":"Feature","geometry":{"type":"Polygon","coordinates":[[[9.1513,45.2517],[9.1457,45.2526],[9.1338,45.2421],[9.1337,45.2296],[9.1589,45.232],[9.1689,45.2461],[9.1513,45.2517]]]},"properties":{"name":"Borgarello","com_istat_code":"018015"}},
{"type":"Feature","geometry":{"type":"Polygon","coordinates":[[[9.1253,44.9817],[9.1054,44.9859],[9.1058,44.9761],[9.1078,44.9621],[9.1271,44.9563],[9.1158,44.9457],[9.1199,44.9331],[9.1305,44.9293],[9.1417,44.9198],[9.1704,44.9306],[9.171,44.9394],[9.178,44.9435],[9.1787,44.9551],[9.1936,44.968],[9.1818,44.9737],[9.1597,44.9723],[9.1506,44.9691],[9.1453,44.9785],[9.1253,44.9817]]]},"properties":{"name":"Borgo Priolo","com_istat_code":"018016"}},
{"type":"Feature","geometry":{"type":"Polygon","coordinates":[[[9.2264,44.944],[9.2235,44.9513],[9.1986,44.9668],[9.1936,44.968],[9.1787,44.9551],[9.178,44.9435],[9.171,44.9394],[9.1704,44.9306],[9.2015,44.9199],[9.2162,44.9257],[9.2311,44.9273],[9.2264,44.944]]]},"properties":{"name":"Borgoratto Mormorolo","com_istat_code":"018017"}},
{"type":"Feature","geometry":{"type":"Polygon","coordinates":[[[8.9827,45.2645],[8.9676,45.2605],[8.94,45.2543],[8.9284,45.2576],[8.8939,45.2556],[8.8811,45.2341],[8.8937,45.2323],[8.9014,45.2194],[8.924,45.2287],[8.9322,45.2375],[8.9482,45.2401],[8.962,45.2378],[8.9582,45.2445],[8.972,45.2518],[8.9821,45.2535],[8.9827,45.2645]]]},"properties":{"name":"Borgo San Siro","com_istat_code":"018018"}},
{"type":"Feature","geometry":{"type":"Polygon","coordinates":[[[9.2008,45.2911],[9.1838,45.2939],[9.1793,45.2982],[9.18,45.286],[9.1964,45.273],[9.2068,45.2625],[9.2042,45.2505],[9.2126,45.2508],[9.209,45.2374],[9.2267,45.2366],[9.2307,45.2496],[9.2411,45.2707],[9.2356,45.2763],[9.2134,45.2745],[9.2112,45.2811],[9.2008,45.2911]]]},"properties":{"name":"Bornasco","com_istat_code":"018019"}},
{"type":"Feature","geometry":{"type":"Polygon","coordinates":[[[9.3893,45.064],[9.3557,45.0682],[9.3553,45.0586],[9.3444,45.0494],[9.3627,45.0466],[9.3708,45.0482],[9.3893,45.064]]]},"properties":{"name":"Bosnasco","com_istat_code":"018020"}},
{"type":"Feature","geometry":{"type":"Polygon","coordinates":[[[9.2859,44.7594],[9.2662,44.7635],[9.2592,44.7482],[9.2375,44.7401],[9.233,44.724],[9.2351,44.7164],[9.2543,44.6921],[9.2576,44.6812],[9.2786,44.6856],[9.2876,44.6802],[9.2985,44.681],[9.3056,44.6883],[9.3246,44.69],[9.3085,44.7056],[9.3172,44.7195],[9.3259,44.7231],[9.3326,44.735],[9.3212,44.7434],[9.2993,44.7516],[9.2859,44.7594]]]},"properties":{"name":"Brallo di Pregola","com_istat_code":"018021"}},
{"type":"Feature","geometry":{"type":"Polygon","coordinates":[[[8.6566,45.1365],[8.6473,45.1393],[8.6294,45.1566],[8.6163,45.1579],[8.6032,45.1535],[8.5929,45.1465],[8.5853,45.1479],[8.5901,45.133],[8.6118,45.1275],[8.6085,45.1083],[8.6135,45.1024],[8.6308,45.1108],[8.6472,45.1114],[8.6472,45.1253],[8.6566,45.1365]]]},"properties":{"name":"Breme","com_istat_code":"018022"}},
{"type":"Feature","geometry":{"type":"Polygon","coordinates":[[[9.1528,45.1005],[9.1455,45.114],[9.1432,45.0958],[9.1298,45.0938],[9.1227,45.0996],[9.1137,45.0957],[9.1115,45.0872],[9.0977,45.0868],[9.096,45.0765],[9.1141,45.0706],[9.1309,45.0563],[9.1397,45.0564],[9.1439,45.0735],[9.1413,45.0813],[9.1539,45.0857],[9.1569,45.0908],[9.1528,45.1005]]]},"properties":{"name":"Bressana Bottarone","com_istat_code":"018023"}},
{"type":"Feature","geometry":{"type":"Polygon","coordinates":[[[9.2675,45.1088],[9.2526,45.1052],[9.2626,45.096],[9.2635,45.09],[9.2427,45.084],[9.2106,45.0638],[9.217,45.0527],[9.2185,45.0392],[9.2248,45.04],[9.2301,45.0518],[9.2483,45.0546],[9.2664,45.0439],[9.2667,45.0551],[9.2785,45.0614],[9.2798,45.0936],[9.2675,45.1088]]]},"properties":{"name":"Broni","com_istat_code":"018024"}},
{"type":"Feature","geometry":{"type":"Polygon","coordinates":[[[9.1818,44.9737],[9.1822,44.9906],[9.1654,45.0005],[9.1493,44.9893],[9.1453,44.9785],[9.1506,44.9691],[9.1597,44.9723],[9.1818,44.9737]]]},"properties":{"name":"Calvignano","com_istat_code":"018025"}},
{"type":"Feature","geometry":{"type":"Polygon","coordinates":[[[9.2618,45.1258],[9.2577,45.1255],[9.2373,45.1362],[9.2293,45.1303],[9.2338,45.114],[9.2254,45.1063],[9.2153,45.1065],[9.2285,45.0922],[9.2427,45.084],[9.2635,45.09],[9.2626,45.096],[9.2526,45.1052],[9.2675,45.1088],[9.2616,45.12],[9.268,45.1233],[9.2618,45.1258]]]},"properties":{"name":"Campospinoso Albaredo","com_istat_code":"018026"}},
{"type":"Feature","geometry":{"type":"Polygon","coordinates":[[[8.6271,45.1765],[8.6104,45.1883],[8.5947,45.2089],[8.5812,45.2022],[8.5624,45.1945],[8.544,45.1813],[8.543,45.173],[8.555,45.1643],[8.5567,45.1577],[8.5765,45.153],[8.5853,45.1479],[8.5929,45.1465],[8.6032,45.1535],[8.6163,45.1579],[8.6277,45.1646],[8.6271,45.1765]]]},"properties":{"name":"Candia Lomellina","com_istat_code":"018027"}},
{"type":"Feature","geometry":{"type":"Polygon","coordinates":[[[9.2785,45.0614],[9.2667,45.0551],[9.2664,45.0439],[9.2699,45.0406],[9.2763,45.0359],[9.2994,45.0361],[9.3041,45.0534],[9.2916,45.0533],[9.2785,45.0614]]]},"properties":{"name":"Canneto Pavese","com_istat_code":"018029"}},
{"type":"Feature","geometry":{"type":"Polygon","coordinates":[[[9.1103,45.1821],[9.1207,45.189],[9.1042,45.1924],[9.0981,45.1997],[9.0849,45.1996],[9.079,45.1899],[9.0565,45.181],[9.0525,45.1712],[9.0558,45.1619],[9.0508,45.15],[9.0678,45.1535],[9.0808,45.1591],[9.1103,45.1821]]]},"properties":{"name":"Carbonara al Ticino","com_istat_code":"018030"}},
{"type":"Feature","geometry":{"type":"Polygon","coordinates":[[[9.2153,45.1065],[9.2086,45.1119],[9.2018,45.1072],[9.2001,45.1012],[9.2049,45.0853],[9.2132,45.0812],[9.2278,45.0854],[9.2285,45.0922],[9.2153,45.1065]]]},"properties":{"name":"Casanova Lonati","com_istat_code":"018031"}},
{"type":"Feature","geometry":{"type":"Polygon","coordinates":[[[9.1141,45.0706],[9.1058,45.0653],[9.1079,45.0503],[9.1168,45.0486],[9.1191,45.0403],[9.1335,45.0361],[9.1343,45.0359],[9.1397,45.0564],[9.1309,45.0563],[9.1141,45.0706]]]},"properties":{"name":"Casatisma","com_istat_code":"018032"}},
{"type":"Feature","geometry":{"type":"MultiPolygon","coordinates":[[[[8.9228,45.0329],[8.9002,45.0436],[8.9047,45.0266],[8.9013,45.0078],[8.9169,44.9881],[8.9256,44.9822],[8.9606,44.9873],[8.9649,45.0014],[8.9711,45.0345],[8.9457,45.0239],[8.9263,45.0261],[8.9228,45.0329]]],[[[8.9301,45.0438],[8.9341,45.0524],[8.9218,45.0467],[8.9301,45.0438]]],[[[8.8934,45.0584],[8.8877,45.0592],[8.8916,45.0513],[8.8934,45.0584]]]]},"properties":{"name":"Casei Gerola","com_istat_code":"018033"}},
{"type":"Feature","geometry":{"type":"Polygon","coordinates":[[[9.0301,45.2965],[9.0364,45.3032],[9.0317,45.3145],[9.0202,45.326],[9.0013,45.3199],[8.9883,45.3216],[8.9987,45.3025],[8.9949,45.2957],[9.0158,45.2906],[9.0187,45.2806],[9.0301,45.2965]]]},"properties":{"name":"Casorate Primo","com_istat_code":"018034"}},
{"type":"Feature","geometry":{"type":"Polygon","coordinates":[[[8.8664,45.3547],[8.8662,45.3594],[8.8505,45.3668],[8.8475,45.3733],[8.8476,45.3903],[8.8429,45.3938],[8.8233,45.3922],[8.8105,45.3888],[8.8119,45.3833],[8.7934,45.379],[8.7691,45.3876],[8.764,45.3773],[8.7281,45.3754],[8.7211,45.3704],[8.7464,45.3552],[8.7607,45.3557],[8.7668,45.3639],[8.7779,45.3677],[8.7859,45.3642],[8.796,45.3535],[8.8105,45.3454],[8.8233,45.345],[8.8664,45.3547]]]},"properties":{"name":"Cassolnovo","com_istat_code":"018035"}},
{"type":"Feature","geometry":{"type":"Polygon","coordinates":[[[9.2763,45.0359],[9.2699,45.0406],[9.2622,45.0312],[9.267,45.0229],[9.2754,45.0152],[9.283,45.0084],[9.2943,45.0115],[9.2992,45.0198],[9.2937,45.0181],[9.2852,45.0295],[9.2763,45.0359]]]},"properties":{"name":"Castana","com_istat_code":"018036"}},
{"type":"Feature","geometry":{"type":"Polygon","coordinates":[[[9.1335,45.0361],[9.1191,45.0403],[9.1082,45.0347],[9.1067,45.02],[9.1129,45.002],[9.1278,44.9916],[9.1253,44.9817],[9.1453,44.9785],[9.1493,44.9893],[9.1654,45.0005],[9.1504,45.0066],[9.1493,45.0233],[9.1331,45.0328],[9.1335,45.0361]]]},"properties":{"name":"Casteggio","com_istat_code":"018037"}},
{"type":"Feature","geometry":{"type":"Polygon","coordinates":[[[9.1137,45.0957],[9.1016,45.0939],[9.0882,45.0781],[9.0728,45.0747],[9.0639,45.0817],[9.0669,45.0692],[9.067,45.0559],[9.0712,45.0505],[9.0987,45.0479],[9.1079,45.0503],[9.1058,45.0653],[9.1141,45.0706],[9.096,45.0765],[9.0977,45.0868],[9.1115,45.0872],[9.1137,45.0957]]]},"properties":{"name":"Castelletto di Branduzzo","com_istat_code":"018038"}},
{"type":"Feature","geometry":{"type":"Polygon","coordinates":[[[8.6879,45.2591],[8.686,45.2504],[8.6762,45.2375],[8.6645,45.2277],[8.6596,45.2214],[8.6707,45.2109],[8.688,45.2144],[8.6863,45.2172],[8.7104,45.2251],[8.7125,45.2284],[8.6879,45.2591]]]},"properties":{"name":"Castello d'Agogna","com_istat_code":"018039"}},
{"type":"Feature","geometry":{"type":"Polygon","coordinates":[[[8.6615,45.2686],[8.6645,45.2764],[8.6487,45.2854],[8.6191,45.2742],[8.6132,45.2691],[8.5909,45.2696],[8.5999,45.2374],[8.6152,45.2309],[8.6215,45.2211],[8.6287,45.2222],[8.6252,45.2359],[8.6332,45.2517],[8.6475,45.2632],[8.6589,45.2637],[8.6615,45.2686]]]},"properties":{"name":"Castelnovetto","com_istat_code":"018040"}},
{"type":"Feature","geometry":{"type":"Polygon","coordinates":[[[9.0808,45.1591],[9.0678,45.1535],[9.07,45.1501],[9.0804,45.1435],[9.0916,45.1421],[9.1127,45.1218],[9.115,45.1161],[9.1227,45.0996],[9.1298,45.0938],[9.1432,45.0958],[9.1455,45.114],[9.1523,45.1224],[9.1372,45.1408],[9.123,45.1371],[9.1008,45.1536],[9.0867,45.1518],[9.0808,45.1591]]]},"properties":{"name":"Cava Manara","com_istat_code":"018041"}},
{"type":"Feature","geometry":{"type":"Polygon","coordinates":[[[9.0963,44.8613],[9.0799,44.867],[9.0701,44.866],[9.068,44.8605],[9.0547,44.8519],[9.0514,44.8459],[9.075,44.823],[9.0816,44.8145],[9.0892,44.8173],[9.0787,44.829],[9.0802,44.8432],[9.0919,44.851],[9.0963,44.8613]]]},"properties":{"name":"Cecima","com_istat_code":"018042"}},
{"type":"Feature","geometry":{"type":"Polygon","coordinates":[[[9.2596,45.2526],[9.2551,45.2667],[9.2411,45.2707],[9.2307,45.2496],[9.2526,45.2433],[9.2632,45.2488],[9.2596,45.2526]]]},"properties":{"name":"Ceranova","com_istat_code":"018043"}},
{"type":"Feature","geometry":{"type":"Polygon","coordinates":[[[8.6851,45.2637],[8.6615,45.2686],[8.6589,45.2637],[8.6548,45.2558],[8.6574,45.2432],[8.6645,45.2277],[8.6762,45.2375],[8.686,45.2504],[8.6879,45.2591],[8.6851,45.2637]]]},"properties":{"name":"Ceretto Lomellina","com_istat_code":"018044"}},
{"type":"Feature","geometry":{"type":"Polygon","coordinates":[[[8.7989,45.2159],[8.7946,45.2139],[8.7764,45.2195],[8.7649,45.2109],[8.7508,45.214],[8.7437,45.1937],[8.7295,45.1881],[8.7214,45.1811],[8.7394,45.175],[8.7462,45.1819],[8.7743,45.1845],[8.7826,45.1981],[8.798,45.2],[8.7988,45.205],[8.7989,45.2159]]]},"properties":{"name":"Cergnago","com_istat_code":"018045"}},
{"type":"Feature","geometry":{"type":"Polygon","coordinates":[[[9.1513,45.2517],[9.1516,45.26],[9.1359,45.257],[9.1275,45.2771],[9.1217,45.2682],[9.1115,45.2662],[9.1044,45.2539],[9.1069,45.2377],[9.1031,45.2317],[9.1099,45.2333],[9.1337,45.2296],[9.1338,45.2421],[9.1457,45.2526],[9.1513,45.2517]]]},"properties":{"name":"Certosa di Pavia","com_istat_code":"018046"}},
{"type":"Feature","geometry":{"type":"Polygon","coordinates":[[[9.0295,45.069],[9.0314,45.0768],[9.0445,45.0806],[9.0297,45.0894],[9.0177,45.0889],[9.0176,45.0787],[9.0044,45.0745],[9.0005,45.0835],[8.9833,45.0744],[8.9899,45.0639],[9.0035,45.0567],[8.9923,45.048],[8.9911,45.0404],[9.0009,45.0352],[9.0129,45.0414],[9.0295,45.069]]]},"properties":{"name":"Cervesina","com_istat_code":"018047"}},
{"type":"Feature","geometry":{"type":"Polygon","coordinates":[[[9.5429,45.1374],[9.5442,45.1532],[9.5316,45.1654],[9.4782,45.1617],[9.4371,45.1603],[9.4527,45.1543],[9.4644,45.1418],[9.4587,45.1392],[9.4628,45.1314],[9.4749,45.1317],[9.5065,45.1329],[9.5164,45.1302],[9.5229,45.1234],[9.5358,45.122],[9.5363,45.124],[9.5299,45.1272],[9.53,45.1357],[9.5429,45.1374]]]},"properties":{"name":"Chignolo Po","com_istat_code":"018048"}},
{"type":"Feature","geometry":{"type":"Polygon","coordinates":[[[9.2664,45.0439],[9.2483,45.0546],[9.2301,45.0518],[9.2248,45.04],[9.2314,45.038],[9.2431,45.0243],[9.267,45.0229],[9.2622,45.0312],[9.2699,45.0406],[9.2664,45.0439]]]},"properties":{"name":"Cigognola","com_istat_code":"018049"}},
{"type":"Feature","geometry":{"type":"Polygon","coordinates":[[[8.7421,45.3321],[8.7264,45.3323],[8.7142,45.3016],[8.7239,45.2881],[8.7522,45.2914],[8.778,45.2904],[8.7928,45.294],[8.7876,45.3103],[8.7642,45.3097],[8.743,45.3266],[8.7421,45.3321]]]},"properties":{"name":"Cilavegna","com_istat_code":"018050"}},
{"type":"Feature","geometry":{"type":"Polygon","coordinates":[[[9.0793,44.9384],[9.0814,44.9585],[9.0723,44.9656],[9.0685,44.9779],[9.0718,44.9972],[9.0685,44.9971],[9.0659,44.9926],[9.0479,44.9859],[9.0314,44.9727],[9.0436,44.9659],[9.0628,44.9374],[9.0793,44.9384]]]},"properties":{"name":"Codevilla","com_istat_code":"018051"}},
{"type":"Feature","geometry":{"type":"Polygon","coordinates":[[[8.6317,45.3384],[8.6323,45.3464],[8.6252,45.3518],[8.6128,45.3543],[8.5991,45.3486],[8.5908,45.3519],[8.571,45.3486],[8.5509,45.3561],[8.542,45.3478],[8.5283,45.3406],[8.5379,45.3172],[8.5662,45.3083],[8.5739,45.31],[8.585,45.3187],[8.5982,45.3229],[8.6317,45.3384]]]},"properties":{"name":"Confienza","com_istat_code":"018052"}},
{"type":"Feature","geometry":{"type":"Polygon","coordinates":[[[9.3324,45.2067],[9.3155,45.203],[9.3216,45.1886],[9.3327,45.1819],[9.3434,45.193],[9.3527,45.1925],[9.341,45.2042],[9.3324,45.2067]]]},"properties":{"name":"Copiano","com_istat_code":"018053"}},
{"type":"Feature","geometry":{"type":"Polygon","coordinates":[[[8.9518,45.0747],[8.9361,45.0922],[8.9241,45.0914],[8.928,45.0875],[8.9389,45.0808],[8.942,45.0724],[8.9479,45.0598],[8.959,45.0615],[8.9715,45.0552],[8.9716,45.0472],[8.9833,45.0457],[8.9911,45.0404],[8.9923,45.048],[9.0035,45.0567],[8.9899,45.0639],[8.9833,45.0744],[9.0005,45.0835],[8.9919,45.086],[8.9742,45.085],[8.9677,45.0799],[8.9518,45.0747]]]},"properties":{"name":"Corana","com_istat_code":"018054"}},
{"type":"Feature","geometry":{"type":"Polygon","coordinates":[[[9.1569,45.0331],[9.1449,45.0325],[9.1343,45.0359],[9.1335,45.0361],[9.1331,45.0328],[9.1493,45.0233],[9.1504,45.0066],[9.1654,45.0005],[9.1709,45.0112],[9.1594,45.0205],[9.1569,45.0331]]]},"properties":{"name":"Corvino San Quirico","com_istat_code":"018057"}},
{"type":"Feature","geometry":{"type":"Polygon","coordinates":[[[9.4179,45.1278],[9.4108,45.1503],[9.3897,45.1487],[9.3889,45.1432],[9.3729,45.1407],[9.3553,45.1435],[9.3503,45.1332],[9.3605,45.1307],[9.3874,45.1195],[9.3968,45.1211],[9.4136,45.1189],[9.4179,45.1278]]]},"properties":{"name":"Costa de' Nobili","com_istat_code":"018058"}},
{"type":"Feature","geometry":{"type":"Polygon","coordinates":[[[8.6287,45.2222],[8.6215,45.2211],[8.6152,45.2309],[8.5999,45.2374],[8.5944,45.2316],[8.5831,45.232],[8.5947,45.2089],[8.6104,45.1883],[8.6271,45.1765],[8.6457,45.1793],[8.6444,45.1924],[8.6301,45.1972],[8.6347,45.2118],[8.6511,45.2156],[8.6363,45.2232],[8.6287,45.2222]]]},"properties":{"name":"Cozzo","com_istat_code":"018059"}},
{"type":"Feature","geometry":{"type":"Polygon","coordinates":[[[9.2841,45.2223],[9.2663,45.2184],[9.25,45.2205],[9.2402,45.2133],[9.229,45.2104],[9.2148,45.2151],[9.216,45.2037],[9.2318,45.2029],[9.2402,45.196],[9.2242,45.1875],[9.2308,45.1827],[9.2345,45.1828],[9.2467,45.1866],[9.2598,45.2066],[9.2687,45.2116],[9.2908,45.2079],[9.2902,45.2172],[9.2841,45.2223]]]},"properties":{"name":"Cura Carpignano","com_istat_code":"018060"}},
{"type":"Feature","geometry":{"type":"Polygon","coordinates":[[[8.953,45.1795],[8.9317,45.1714],[8.9172,45.1719],[8.914,45.1607],[8.9033,45.1509],[8.8957,45.1498],[8.8964,45.1448],[8.9095,45.1468],[8.9183,45.1445],[8.9353,45.1292],[8.9279,45.1224],[8.9347,45.1206],[8.9593,45.1317],[8.9697,45.1232],[8.9877,45.1197],[8.9909,45.1133],[8.9889,45.1199],[8.9962,45.1418],[8.9914,45.1539],[8.953,45.1795]]]},"properties":{"name":"Dorno","com_istat_code":"018061"}},
{"type":"Feature","geometry":{"type":"Polygon","coordinates":[[[8.8675,45.1266],[8.8512,45.129],[8.8396,45.122],[8.8224,45.1212],[8.8258,45.1098],[8.8375,45.0952],[8.846,45.0888],[8.8555,45.081],[8.8483,45.077],[8.8612,45.0722],[8.8826,45.0723],[8.8759,45.1011],[8.885,45.1178],[8.8675,45.1266]]]},"properties":{"name":"Ferrera Erbognone","com_istat_code":"018062"}},
{"type":"Feature","geometry":{"type":"Polygon","coordinates":[[[9.3216,45.1886],[9.3111,45.1856],[9.3003,45.1924],[9.2887,45.1844],[9.2876,45.1703],[9.303,45.1724],[9.3201,45.169],[9.3471,45.1667],[9.3433,45.1789],[9.3327,45.1819],[9.3216,45.1886]]]},"properties":{"name":"Filighera","com_istat_code":"018063"}},
{"type":"Feature","geometry":{"type":"Polygon","coordinates":[[[9.2311,44.9273],[9.2162,44.9257],[9.2015,44.9199],[9.1704,44.9306],[9.1417,44.9198],[9.1507,44.9121],[9.1479,44.8973],[9.1543,44.8918],[9.1666,44.8925],[9.1846,44.9031],[9.2094,44.8982],[9.2188,44.9115],[9.2332,44.9187],[9.2311,44.9273]]]},"properties":{"name":"Fortunago","com_istat_code":"018064"}},
{"type":"Feature","geometry":{"type":"Polygon","coordinates":[[[8.7296,45.0663],[8.7195,45.0583],[8.6998,45.0627],[8.692,45.0682],[8.6843,45.0651],[8.6835,45.0551],[8.6754,45.0543],[8.6447,45.0609],[8.6406,45.0445],[8.6347,45.041],[8.6526,45.0343],[8.652,45.0237],[8.6593,45.0179],[8.6729,45.0279],[8.6817,45.0288],[8.695,45.0232],[8.7081,45.0382],[8.7161,45.0457],[8.7299,45.043],[8.7374,45.0462],[8.7432,45.0596],[8.7296,45.0663]]]},"properties":{"name":"Frascarolo","com_istat_code":"018065"}},
{"type":"Feature","geometry":{"type":"Polygon","coordinates":[[[8.8258,45.1098],[8.8201,45.1139],[8.8069,45.1101],[8.799,45.0964],[8.8001,45.0921],[8.8041,45.0821],[8.816,45.076],[8.8304,45.0868],[8.846,45.0888],[8.8375,45.0952],[8.8258,45.1098]]]},"properties":{"name":"Galliavola","com_istat_code":"018066"}},
{"type":"Feature","geometry":{"type":"Polygon","coordinates":[[[8.7638,45.0584],[8.7533,45.0657],[8.7432,45.0596],[8.7374,45.0462],[8.7471,45.0422],[8.7536,45.0246],[8.7775,45.0224],[8.7909,45.02],[8.8023,45.0261],[8.7912,45.0311],[8.785,45.042],[8.7759,45.0434],[8.7638,45.0584]]]},"properties":{"name":"Gambarana","com_istat_code":"018067"}},
{"type":"Feature","geometry":{"type":"Polygon","coordinates":[[[8.9676,45.2605],[8.9418,45.2752],[8.9328,45.2842],[8.9249,45.2856],[8.9143,45.2746],[8.8943,45.2715],[8.8873,45.2813],[8.8664,45.2795],[8.8414,45.2826],[8.8355,45.278],[8.8239,45.28],[8.8032,45.2775],[8.7939,45.2702],[8.7961,45.2504],[8.8019,45.2457],[8.7967,45.2333],[8.804,45.2303],[8.8229,45.2272],[8.846,45.2319],[8.8683,45.2309],[8.8811,45.2341],[8.8939,45.2556],[8.9284,45.2576],[8.94,45.2543],[8.9676,45.2605]]]},"properties":{"name":"Gambolò","com_istat_code":"018068"}},
{"type":"Feature","geometry":{"type":"Polygon","coordinates":[[[8.962,45.2378],[8.9482,45.2401],[8.9322,45.2375],[8.924,45.2287],[8.9014,45.2194],[8.8928,45.1995],[8.8767,45.1852],[8.8774,45.1813],[8.8823,45.1769],[8.897,45.1774],[8.9172,45.1719],[8.9317,45.1714],[8.953,45.1795],[8.9604,45.1901],[8.9831,45.2041],[8.9905,45.2057],[8.9724,45.2145],[8.968,45.2266],[8.973,45.2306],[8.962,45.2378]]]},"properties":{"name":"Garlasco","com_istat_code":"018069"}},
{"type":"Feature","geometry":{"type":"Polygon","coordinates":[[[9.3913,45.2064],[9.3699,45.2068],[9.3577,45.2098],[9.3436,45.2058],[9.341,45.2042],[9.3527,45.1925],[9.3704,45.184],[9.376,45.1885],[9.3706,45.2027],[9.3913,45.2064]]]},"properties":{"name":"Gerenzago","com_istat_code":"018071"}},
{"type":"Feature","geometry":{"type":"Polygon","coordinates":[[[9.1793,45.2982],[9.1513,45.2988],[9.1411,45.3096],[9.1097,45.3073],[9.1156,45.2941],[9.1223,45.2766],[9.1275,45.2771],[9.1359,45.257],[9.1516,45.26],[9.1513,45.2517],[9.1689,45.2461],[9.1736,45.2481],[9.1721,45.255],[9.1848,45.2712],[9.1964,45.273],[9.18,45.286],[9.1793,45.2982]]]},"properties":{"name":"Giussago","com_istat_code":"018072"}},
{"type":"Feature","geometry":{"type":"Polygon","coordinates":[[[9.077,44.9071],[9.0493,44.9053],[9.0353,44.9104],[9.0323,44.9156],[9.0202,44.9139],[9.0184,44.9008],[9.0304,44.8885],[9.0552,44.8889],[9.0615,44.876],[9.0701,44.866],[9.0799,44.867],[9.0963,44.8613],[9.1036,44.8667],[9.1115,44.8841],[9.0981,44.8972],[9.0742,44.8933],[9.077,44.9071]]]},"properties":{"name":"Godiasco Salice Terme","com_istat_code":"018073"}},
{"type":"Feature","geometry":{"type":"Polygon","coordinates":[[[9.3246,44.956],[9.3111,44.968],[9.2989,44.9735],[9.2984,44.973],[9.2978,44.9706],[9.2872,44.9557],[9.323,44.9497],[9.3246,44.956]]]},"properties":{"name":"Golferenzo","com_istat_code":"018074"}},
{"type":"Feature","geometry":{"type":"Polygon","coordinates":[[[8.8105,45.3454],[8.796,45.3535],[8.7859,45.3642],[8.7779,45.3677],[8.7668,45.3639],[8.7607,45.3557],[8.7556,45.3445],[8.7453,45.3395],[8.7421,45.3321],[8.743,45.3266],[8.7642,45.3097],[8.7876,45.3103],[8.7927,45.3132],[8.7875,45.3253],[8.7933,45.3349],[8.8067,45.3343],[8.8105,45.3454]]]},"properties":{"name":"Gravellona Lomellina","com_istat_code":"018075"}},
{"type":"Feature","geometry":{"type":"Polygon","coordinates":[[[9.0375,45.18],[9.0342,45.1891],[9.0103,45.1922],[8.99,45.2003],[8.9905,45.2057],[8.9831,45.2041],[8.9604,45.1901],[8.953,45.1795],[8.9914,45.1539],[8.9962,45.1418],[9.0137,45.1414],[9.0302,45.1528],[9.0227,45.181],[9.0375,45.18]]]},"properties":{"name":"Gropello Cairoli","com_istat_code":"018076"}},
{"type":"Feature","geometry":{"type":"Polygon","coordinates":[[[9.4211,45.1948],[9.4172,45.2059],[9.4022,45.2019],[9.401,45.2101],[9.3913,45.2064],[9.3706,45.2027],[9.376,45.1885],[9.3704,45.184],[9.3847,45.1769],[9.3841,45.1835],[9.408,45.1854],[9.4174,45.1805],[9.423,45.1876],[9.4211,45.1948]]]},"properties":{"name":"Inverno e Monteleone","com_istat_code":"018077"}},
{"type":"Feature","geometry":{"type":"Polygon","coordinates":[[[9.3031,45.3272],[9.2823,45.3301],[9.2735,45.3246],[9.246,45.3245],[9.24,45.3175],[9.2472,45.3011],[9.2661,45.2857],[9.2745,45.2833],[9.2936,45.3062],[9.2949,45.3209],[9.3031,45.3272]]]},"properties":{"name":"Landriano","com_istat_code":"018078"}},
{"type":"Feature","geometry":{"type":"Polygon","coordinates":[[[8.5831,45.232],[8.5612,45.2367],[8.5294,45.2382],[8.5417,45.2364],[8.5406,45.2307],[8.5245,45.2271],[8.5257,45.2193],[8.5446,45.209],[8.5472,45.2034],[8.5322,45.1993],[8.5294,45.1934],[8.5523,45.1964],[8.5569,45.2052],[8.5717,45.2059],[8.5812,45.2022],[8.5947,45.2089],[8.5831,45.232]]]},"properties":{"name":"Langosco","com_istat_code":"018079"}},
{"type":"Feature","geometry":{"type":"Polygon","coordinates":[[[9.2632,45.2488],[9.2526,45.2433],[9.2307,45.2496],[9.2267,45.2366],[9.2296,45.2307],[9.2505,45.2288],[9.265,45.2382],[9.2781,45.2405],[9.2632,45.2488]]]},"properties":{"name":"Lardirago","com_istat_code":"018080"}},
{"type":"Feature","geometry":{"type":"Polygon","coordinates":[[[9.2803,45.1668],[9.2764,45.1692],[9.2535,45.1655],[9.2518,45.1606],[9.2274,45.1587],[9.2216,45.1423],[9.2227,45.1406],[9.2373,45.1362],[9.2577,45.1255],[9.2618,45.1258],[9.2589,45.1403],[9.2807,45.1493],[9.2881,45.1591],[9.2803,45.1668]]]},"properties":{"name":"Linarolo","com_istat_code":"018081"}},
{"type":"Feature","geometry":{"type":"Polygon","coordinates":[[[9.2707,44.9991],[9.2593,45.0048],[9.2466,44.9971],[9.2586,44.9902],[9.2707,44.9991]]]},"properties":{"name":"Lirio","com_istat_code":"018082"}},
{"type":"Feature","geometry":{"type":"Polygon","coordinates":[[[8.7906,45.1442],[8.7701,45.1492],[8.7584,45.1478],[8.757,45.1384],[8.7504,45.1355],[8.7546,45.1275],[8.7612,45.1193],[8.7649,45.0999],[8.7729,45.0977],[8.7853,45.0982],[8.8001,45.0921],[8.799,45.0964],[8.8069,45.1101],[8.8201,45.1139],[8.8258,45.1098],[8.8224,45.1212],[8.8194,45.1274],[8.7906,45.1442]]]},"properties":{"name":"Lomello","com_istat_code":"018083"}},
{"type":"Feature","geometry":{"type":"Polygon","coordinates":[[[9.0987,45.0479],[9.0712,45.0505],[9.0653,45.0425],[9.0682,45.0238],[9.07,45.0201],[9.089,45.0245],[9.0973,45.0295],[9.0987,45.0479]]]},"properties":{"name":"Lungavilla","com_istat_code":"018084"}},
{"type":"Feature","geometry":{"type":"Polygon","coordinates":[[[9.3436,45.2058],[9.3492,45.2144],[9.3404,45.2324],[9.3368,45.2327],[9.3107,45.2252],[9.3308,45.2104],[9.3324,45.2067],[9.341,45.2042],[9.3436,45.2058]]]},"properties":{"name":"Magherno","com_istat_code":"018085"}},
{"type":"Feature","geometry":{"type":"Polygon","coordinates":[[[9.1044,45.2539],[9.0913,45.2598],[9.0829,45.2685],[9.0654,45.256],[9.0599,45.2564],[9.0543,45.2495],[9.081,45.2366],[9.078,45.2317],[9.0947,45.2267],[9.1031,45.2317],[9.1069,45.2377],[9.1044,45.2539]]]},"properties":{"name":"Marcignago","com_istat_code":"018086"}},
{"type":"Feature","geometry":{"type":"Polygon","coordinates":[[[9.3152,45.2596],[9.2928,45.2642],[9.2772,45.253],[9.2678,45.2551],[9.2596,45.2526],[9.2632,45.2488],[9.2781,45.2405],[9.2884,45.2299],[9.3022,45.2295],[9.3039,45.2449],[9.3104,45.249],[9.3152,45.2596]]]},"properties":{"name":"Marzano","com_istat_code":"018087"}},
{"type":"Feature","geometry":{"type":"Polygon","coordinates":[[[8.7546,45.1275],[8.7422,45.1292],[8.7389,45.1222],[8.7116,45.1245],[8.699,45.1128],[8.6925,45.096],[8.7038,45.0883],[8.7219,45.0837],[8.7196,45.0756],[8.7296,45.0663],[8.7432,45.0596],[8.7533,45.0657],[8.7638,45.0584],[8.7797,45.075],[8.7706,45.0877],[8.7729,45.0977],[8.7649,45.0999],[8.7612,45.1193],[8.7546,45.1275]]]},"properties":{"name":"Mede","com_istat_code":"018088"}},
{"type":"Feature","geometry":{"type":"Polygon","coordinates":[[[9.2868,44.8248],[9.27,44.8251],[9.2312,44.8155],[9.2391,44.795],[9.2368,44.7895],[9.2464,44.7819],[9.2634,44.7838],[9.2786,44.7785],[9.287,44.7725],[9.3179,44.7862],[9.3215,44.8],[9.3111,44.8107],[9.2967,44.8152],[9.2868,44.8248]]]},"properties":{"name":"Menconico","com_istat_code":"018089"}},
{"type":"Feature","geometry":{"type":"Polygon","coordinates":[[[8.9311,45.0657],[8.9166,45.0717],[8.9148,45.0855],[8.9062,45.0871],[8.8826,45.0723],[8.8612,45.0722],[8.8483,45.077],[8.8394,45.0779],[8.8293,45.0648],[8.8319,45.0577],[8.8449,45.0576],[8.8605,45.0512],[8.8809,45.0603],[8.8877,45.0592],[8.8934,45.0584],[8.9087,45.0506],[8.9193,45.0495],[8.9218,45.0467],[8.9341,45.0524],[8.9304,45.0574],[8.932,45.0635],[8.9311,45.0657]]]},"properties":{"name":"Mezzana Bigli","com_istat_code":"018090"}},
{"type":"Feature","geometry":{"type":"Polygon","coordinates":[[[9.0489,45.1011],[9.0307,45.1166],[9.0181,45.1122],[9.0226,45.0992],[9.0297,45.0894],[9.0445,45.0806],[9.0578,45.0837],[9.0588,45.0915],[9.0509,45.0919],[9.0489,45.1011]]]},"properties":{"name":"Mezzana Rabattone","com_istat_code":"018091"}},
{"type":"Feature","geometry":{"type":"Polygon","coordinates":[[[9.2227,45.1406],[9.2061,45.1363],[9.1955,45.1382],[9.1944,45.1449],[9.1744,45.1407],[9.1741,45.13],[9.1867,45.1199],[9.2016,45.1207],[9.2086,45.1119],[9.2153,45.1065],[9.2254,45.1063],[9.2338,45.114],[9.2293,45.1303],[9.2373,45.1362],[9.2227,45.1406]]]},"properties":{"name":"Mezzanino","com_istat_code":"018092"}},
{"type":"Feature","geometry":{"type":"Polygon","coordinates":[[[9.4782,45.1617],[9.4594,45.1778],[9.4568,45.1833],[9.4384,45.1874],[9.4211,45.1948],[9.423,45.1876],[9.4174,45.1805],[9.4215,45.1821],[9.4313,45.1601],[9.4371,45.1603],[9.4782,45.1617]]]},"properties":{"name":"Miradolo Terme","com_istat_code":"018093"}},
{"type":"Feature","geometry":{"type":"Polygon","coordinates":[[[9.2355,44.995],[9.2182,44.9912],[9.198,44.9948],[9.1822,44.9906],[9.1818,44.9737],[9.1936,44.968],[9.1986,44.9668],[9.2235,44.9513],[9.2264,44.944],[9.237,44.9457],[9.2335,44.9537],[9.2383,44.9683],[9.248,44.974],[9.2469,44.9805],[9.2586,44.9902],[9.2466,44.9971],[9.2355,44.995]]]},"properties":{"name":"Montalto Pavese","com_istat_code":"018094"}},
{"type":"Feature","geometry":{"type":"Polygon","coordinates":[[[9.1253,44.9817],[9.1278,44.9916],[9.1129,45.002],[9.1067,45.02],[9.1082,45.0347],[9.0973,45.0295],[9.089,45.0245],[9.07,45.0201],[9.0674,45.0137],[9.0685,44.9971],[9.0718,44.9972],[9.077,44.9962],[9.0924,44.9822],[9.0943,44.9765],[9.1058,44.9761],[9.1054,44.9859],[9.1253,44.9817]]]},"properties":{"name":"Montebello della Battaglia","com_istat_code":"018095"}},
{"type":"Feature","geometry":{"type":"Polygon","coordinates":[[[9.2989,44.9735],[9.2991,44.9812],[9.2847,44.9959],[9.2707,44.9991],[9.2586,44.9902],[9.2469,44.9805],[9.248,44.974],[9.2585,44.9774],[9.2678,44.9699],[9.274,44.9531],[9.2845,44.9527],[9.2872,44.9557],[9.2978,44.9706],[9.2984,44.973],[9.2989,44.9735]]]},"properties":{"name":"Montecalvo Versiggia","com_istat_code":"018096"}},
{"type":"Feature","geometry":{"type":"Polygon","coordinates":[[[9.2994,45.0361],[9.2763,45.0359],[9.2852,45.0295],[9.2937,45.0181],[9.2992,45.0198],[9.2994,45.0361]]]},"properties":{"name":"Montescano","com_istat_code":"018097"}},
{"type":"Feature","geometry":{"type":"Polygon","coordinates":[[[9.1417,44.9198],[9.1305,44.9293],[9.1199,44.9331],[9.112,44.9166],[9.1113,44.9049],[9.0981,44.8972],[9.1115,44.8841],[9.1344,44.8853],[9.1433,44.8805],[9.1543,44.8918],[9.1479,44.8973],[9.1507,44.9121],[9.1417,44.9198]]]},"properties":{"name":"Montesegale","com_istat_code":"018098"}},
{"type":"Feature","geometry":{"type":"MultiPolygon","coordinates":[[[[9.5358,45.122],[9.5229,45.1234],[9.5164,45.1302],[9.5065,45.1329],[9.4749,45.1317],[9.47,45.1221],[9.4786,45.1168],[9.5017,45.1087],[9.5051,45.1021],[9.5182,45.0906],[9.5255,45.0801],[9.532,45.0784],[9.5449,45.0847],[9.5506,45.0952],[9.5374,45.1149],[9.5358,45.122]]],[[[9.5429,45.1374],[9.53,45.1357],[9.5299,45.1272],[9.5363,45.124],[9.5487,45.1327],[9.5429,45.1374]]]]},"properties":{"name":"Monticelli Pavese","com_istat_code":"018099"}},
{"type":"Feature","geometry":{"type":"Polygon","coordinates":[[[9.3189,45.0541],[9.3041,45.0534],[9.2994,45.0361],[9.2992,45.0198],[9.2943,45.0115],[9.3057,45.0068],[9.3213,45.0053],[9.3423,45.0159],[9.3276,45.0255],[9.34,45.0353],[9.3639,45.0429],[9.3627,45.0466],[9.3444,45.0494],[9.3303,45.0417],[9.3189,45.0541]]]},"properties":{"name":"Montù Beccaria","com_istat_code":"018100"}},
{"type":"Feature","geometry":{"type":"Polygon","coordinates":[[[9.215,45.0212],[9.1867,45.0164],[9.1816,45.0099],[9.1913,45.0074],[9.198,44.9948],[9.2182,44.9912],[9.2355,44.995],[9.2269,45.0065],[9.2295,45.0143],[9.215,45.0212]]]},"properties":{"name":"Mornico Losana","com_istat_code":"018101"}},
{"type":"Feature","geometry":{"type":"Polygon","coordinates":[[[8.6888,45.2826],[8.6851,45.2637],[8.6879,45.2591],[8.7125,45.2284],[8.7214,45.2284],[8.7503,45.2187],[8.7508,45.214],[8.7649,45.2109],[8.7764,45.2195],[8.7946,45.2139],[8.7989,45.2159],[8.804,45.2303],[8.7967,45.2333],[8.8019,45.2457],[8.7961,45.2504],[8.7939,45.2702],[8.8032,45.2775],[8.8003,45.2819],[8.7876,45.275],[8.7746,45.2785],[8.7466,45.272],[8.7205,45.2833],[8.706,45.2812],[8.6888,45.2826]]]},"properties":{"name":"Mortara","com_istat_code":"018102"}},
{"type":"Feature","geometry":{"type":"Polygon","coordinates":[[[8.6906,45.2925],[8.666,45.2919],[8.6589,45.3037],[8.6498,45.2979],[8.6487,45.2854],[8.6645,45.2764],[8.6615,45.2686],[8.6851,45.2637],[8.6888,45.2826],[8.6906,45.2925]]]},"properties":{"name":"Nicorvo","com_istat_code":"018103"}},
{"type":"Feature","geometry":{"type":"Polygon","coordinates":[[[8.7508,45.214],[8.7503,45.2187],[8.7214,45.2284],[8.7125,45.2284],[8.7104,45.2251],[8.6863,45.2172],[8.688,45.2144],[8.692,45.2084],[8.7149,45.1925],[8.7207,45.1808],[8.7214,45.1811],[8.7295,45.1881],[8.7437,45.1937],[8.7508,45.214]]]},"properties":{"name":"Olevano di Lomellina","com_istat_code":"018104"}},
{"type":"Feature","geometry":{"type":"Polygon","coordinates":[[[9.1816,45.0099],[9.1709,45.0112],[9.1654,45.0005],[9.1822,44.9906],[9.198,44.9948],[9.1913,45.0074],[9.1816,45.0099]]]},"properties":{"name":"Oliva Gessi","com_istat_code":"018105"}},
{"type":"Feature","geometry":{"type":"Polygon","coordinates":[[[8.8582,45.1721],[8.8379,45.1828],[8.8229,45.1974],[8.8187,45.1786],[8.8093,45.167],[8.8058,45.1566],[8.7963,45.1567],[8.7906,45.1442],[8.8194,45.1274],[8.8224,45.1212],[8.8396,45.122],[8.8512,45.129],[8.8551,45.1455],[8.8513,45.1551],[8.8582,45.1721]]]},"properties":{"name":"Ottobiano","com_istat_code":"018106"}},
{"type":"Feature","geometry":{"type":"Polygon","coordinates":[[[8.5379,45.3172],[8.534,45.3185],[8.5072,45.3071],[8.4983,45.2922],[8.512,45.291],[8.5131,45.2803],[8.5351,45.2778],[8.5362,45.2627],[8.5598,45.28],[8.5659,45.2965],[8.5662,45.3083],[8.5379,45.3172]]]},"properties":{"name":"Palestro","com_istat_code":"018107"}},
{"type":"Feature","geometry":{"type":"MultiPolygon","coordinates":[[[[9.0669,45.0692],[9.0639,45.0817],[9.0578,45.0837],[9.0445,45.0806],[9.0314,45.0768],[9.0295,45.069],[9.0331,45.0618],[9.0542,45.0625],[9.0553,45.0684],[9.0669,45.0692]]],[[[9.0588,45.0915],[9.0574,45.1027],[9.0489,45.1011],[9.0509,45.0919],[9.0588,45.0915]]]]},"properties":{"name":"Pancarana","com_istat_code":"018108"}},
{"type":"Feature","geometry":{"type":"Polygon","coordinates":[[[8.7928,45.294],[8.778,45.2904],[8.7522,45.2914],[8.7239,45.2881],[8.7205,45.2833],[8.7466,45.272],[8.7746,45.2785],[8.7876,45.275],[8.8003,45.2819],[8.7928,45.294]]]},"properties":{"name":"Parona","com_istat_code":"018109"}},
{"type":"Feature","geometry":{"type":"Polygon","coordinates":[[[9.1337,45.2296],[9.1099,45.2333],[9.1031,45.2317],[9.0947,45.2267],[9.1089,45.2097],[9.0981,45.1997],[9.1042,45.1924],[9.1207,45.189],[9.1103,45.1821],[9.1131,45.1754],[9.1385,45.1742],[9.1425,45.1652],[9.1646,45.1716],[9.1749,45.1596],[9.1854,45.1575],[9.2056,45.1623],[9.2139,45.1564],[9.2172,45.1703],[9.2308,45.1827],[9.2242,45.1875],[9.2402,45.196],[9.2318,45.2029],[9.216,45.2037],[9.2148,45.2151],[9.2097,45.2204],[9.1901,45.2289],[9.1589,45.232],[9.1337,45.2296]]]},"properties":{"name":"Pavia","com_istat_code":"018110"}},
{"type":"Feature","geometry":{"type":"Polygon","coordinates":[[[9.267,45.0229],[9.2431,45.0243],[9.2314,45.038],[9.2248,45.04],[9.2185,45.0392],[9.2128,45.029],[9.215,45.0212],[9.2295,45.0143],[9.2269,45.0065],[9.2355,44.995],[9.2466,44.9971],[9.2593,45.0048],[9.2754,45.0152],[9.267,45.0229]]]},"properties":{"name":"Pietra de' Giorgi","com_istat_code":"018111"}},
{"type":"Feature","geometry":{"type":"Polygon","coordinates":[[[8.9909,45.1133],[8.9877,45.1197],[8.9697,45.1232],[8.9593,45.1317],[8.9347,45.1206],[8.9392,45.1072],[8.9498,45.1015],[8.9538,45.0936],[8.9482,45.0838],[8.9518,45.0747],[8.9677,45.0799],[8.9742,45.085],[8.9919,45.086],[8.9953,45.0923],[8.9909,45.1133]]]},"properties":{"name":"Pieve Albignola","com_istat_code":"018112"}},
{"type":"Feature","geometry":{"type":"Polygon","coordinates":[[[8.8483,45.077],[8.8555,45.081],[8.846,45.0888],[8.8304,45.0868],[8.816,45.076],[8.8041,45.0821],[8.7935,45.0748],[8.7797,45.075],[8.7638,45.0584],[8.7759,45.0434],[8.785,45.042],[8.7912,45.0311],[8.8023,45.0261],[8.8099,45.0343],[8.8254,45.044],[8.8605,45.0512],[8.8449,45.0576],[8.8319,45.0577],[8.8293,45.0648],[8.8394,45.0779],[8.8483,45.077]]]},"properties":{"name":"Pieve del Cairo","com_istat_code":"018113"}},
{"type":"Feature","geometry":{"type":"Polygon","coordinates":[[[9.435,45.1276],[9.4239,45.1238],[9.4179,45.1278],[9.4136,45.1189],[9.4111,45.1065],[9.4217,45.0983],[9.4204,45.0935],[9.439,45.0934],[9.4659,45.0947],[9.4937,45.1034],[9.5051,45.1021],[9.5017,45.1087],[9.4786,45.1168],[9.4653,45.116],[9.4555,45.1195],[9.4447,45.1184],[9.435,45.1276]]]},"properties":{"name":"Pieve Porto Morone","com_istat_code":"018114"}},
{"type":"Feature","geometry":{"type":"Polygon","coordinates":[[[9.2018,45.1072],[9.1874,45.1079],[9.1792,45.1047],[9.1733,45.0938],[9.1639,45.085],[9.1539,45.0857],[9.1413,45.0813],[9.1439,45.0735],[9.1633,45.0513],[9.1679,45.0516],[9.1722,45.0593],[9.1825,45.0819],[9.2001,45.1012],[9.2018,45.1072]]]},"properties":{"name":"Pinarolo Po","com_istat_code":"018115"}},
{"type":"Feature","geometry":{"type":"Polygon","coordinates":[[[9.0669,45.0692],[9.0553,45.0684],[9.0542,45.0625],[9.0549,45.0492],[9.0474,45.0428],[9.0398,45.0453],[9.0354,45.031],[9.0682,45.0238],[9.0653,45.0425],[9.0712,45.0505],[9.067,45.0559],[9.0669,45.0692]]]},"properties":{"name":"Pizzale","com_istat_code":"018116"}},
{"type":"Feature","geometry":{"type":"Polygon","coordinates":[[[9.1433,44.8805],[9.1344,44.8853],[9.1115,44.8841],[9.1036,44.8667],[9.0963,44.8613],[9.0919,44.851],[9.0802,44.8432],[9.0787,44.829],[9.0892,44.8173],[9.0951,44.819],[9.1089,44.8298],[9.1098,44.8374],[9.1215,44.8438],[9.1426,44.8483],[9.1509,44.8479],[9.1624,44.8525],[9.1523,44.8576],[9.1375,44.8748],[9.1433,44.8805]]]},"properties":{"name":"Ponte Nizza","com_istat_code":"018117"}},
{"type":"Feature","geometry":{"type":"Polygon","coordinates":[[[9.3438,45.1035],[9.3036,45.1041],[9.3011,45.0941],[9.3146,45.0862],[9.3331,45.0901],[9.3369,45.0999],[9.3438,45.1035]]]},"properties":{"name":"Portalbera","com_istat_code":"018118"}},
{"type":"Feature","geometry":{"type":"Polygon","coordinates":[[[9.1528,45.1005],[9.1584,45.1095],[9.166,45.1334],[9.1523,45.1224],[9.1455,45.114],[9.1528,45.1005]]]},"properties":{"name":"Rea","com_istat_code":"018119"}},
{"type":"Feature","geometry":{"type":"Polygon","coordinates":[[[9.2106,45.0638],[9.1993,45.0645],[9.1952,45.0577],[9.196,45.0389],[9.2016,45.0296],[9.2128,45.029],[9.2185,45.0392],[9.217,45.0527],[9.2106,45.0638]]]},"properties":{"name":"Redavalle","com_istat_code":"018120"}},
{"type":"Feature","geometry":{"type":"Polygon","coordinates":[[[9.0793,44.9384],[9.0628,44.9374],[9.0436,44.9659],[9.0314,44.9727],[9.017,44.9635],[9.0152,44.9588],[9.0181,44.951],[9.0324,44.9402],[9.0529,44.9326],[9.0717,44.9198],[9.0838,44.9307],[9.0793,44.9384]]]},"properties":{"name":"Retorbido","com_istat_code":"018121"}},
{"type":"Feature","geometry":{"type":"Polygon","coordinates":[[[9.0152,44.9588],[8.9872,44.9634],[8.9781,44.9672],[8.9783,44.9568],[8.9696,44.9435],[8.9772,44.9401],[8.9983,44.9179],[9.0013,44.9082],[9.0184,44.9008],[9.0202,44.9139],[9.0323,44.9156],[9.0353,44.9104],[9.0493,44.9053],[9.077,44.9071],[9.0717,44.9198],[9.0529,44.9326],[9.0324,44.9402],[9.0181,44.951],[9.0152,44.9588]]]},"properties":{"name":"Rivanazzano Terme","com_istat_code":"018122"}},
{"type":"Feature","geometry":{"type":"Polygon","coordinates":[[[8.6317,45.3384],[8.5982,45.3229],[8.585,45.3187],[8.5739,45.31],[8.5662,45.3083],[8.5659,45.2965],[8.5598,45.28],[8.5671,45.2709],[8.5909,45.2696],[8.6132,45.2691],[8.6191,45.2742],[8.6487,45.2854],[8.6498,45.2979],[8.6589,45.3037],[8.6593,45.3147],[8.6545,45.327],[8.6317,45.3384]]]},"properties":{"name":"Robbio","com_istat_code":"018123"}},
{"type":"Feature","geometry":{"type":"Polygon","coordinates":[[[9.1679,45.0516],[9.1633,45.0513],[9.1439,45.0735],[9.1397,45.0564],[9.1343,45.0359],[9.1449,45.0325],[9.1569,45.0331],[9.163,45.0382],[9.1679,45.0516]]]},"properties":{"name":"Robecco Pavese","com_istat_code":"018124"}},
{"type":"Feature","geometry":{"type":"Polygon","coordinates":[[[9.274,44.9531],[9.2678,44.9699],[9.2585,44.9774],[9.248,44.974],[9.2383,44.9683],[9.2335,44.9537],[9.237,44.9457],[9.2579,44.9323],[9.2686,44.9344],[9.2646,44.9469],[9.274,44.9531]]]},"properties":{"name":"Rocca de' Giorgi","com_istat_code":"018125"}},
{"type":"Feature","geometry":{"type":"Polygon","coordinates":[[[9.1199,44.9331],[9.1158,44.9457],[9.0978,44.9335],[9.0838,44.9307],[9.0717,44.9198],[9.077,44.9071],[9.0742,44.8933],[9.0981,44.8972],[9.1113,44.9049],[9.112,44.9166],[9.1199,44.9331]]]},"properties":{"name":"Rocca Susella","com_istat_code":"018126"}},
{"type":"Feature","geometry":{"type":"Polygon","coordinates":[[[9.1097,45.3073],[9.0799,45.3035],[9.0643,45.3049],[9.0612,45.2883],[9.0713,45.2895],[9.079,45.2797],[9.092,45.2812],[9.1156,45.2941],[9.1097,45.3073]]]},"properties":{"name":"Rognano","com_istat_code":"018127"}},
{"type":"Feature","geometry":{"type":"Polygon","coordinates":[[[9.3265,44.8729],[9.3117,44.8645],[9.3103,44.8574],[9.2855,44.835],[9.2868,44.8248],[9.2967,44.8152],[9.3111,44.8107],[9.3215,44.8],[9.3299,44.8],[9.3577,44.8146],[9.3592,44.8239],[9.3503,44.837],[9.3424,44.8673],[9.3265,44.8729]]]},"properties":{"name":"Romagnese","com_istat_code":"018128"}},
{"type":"Feature","geometry":{"type":"Polygon","coordinates":[[[9.2781,45.2405],[9.265,45.2382],[9.2505,45.2288],[9.25,45.2205],[9.2663,45.2184],[9.2841,45.2223],[9.2884,45.2299],[9.2781,45.2405]]]},"properties":{"name":"Roncaro","com_istat_code":"018129"}},
{"type":"Feature","geometry":{"type":"Polygon","coordinates":[[[8.5909,45.2696],[8.5671,45.2709],[8.5598,45.28],[8.5362,45.2627],[8.5427,45.2525],[8.536,45.2476],[8.5462,45.2418],[8.5294,45.2382],[8.5612,45.2367],[8.5831,45.232],[8.5944,45.2316],[8.5999,45.2374],[8.5909,45.2696]]]},"properties":{"name":"Rosasco","com_istat_code":"018130"}},
{"type":"Feature","geometry":{"type":"Polygon","coordinates":[[[9.3694,45.0237],[9.359,45.0261],[9.3423,45.0159],[9.3213,45.0053],[9.3246,44.9945],[9.3474,44.9971],[9.3659,45.003],[9.3756,45.0199],[9.3694,45.0237]]]},"properties":{"name":"Rovescala","com_istat_code":"018131"}},
{"type":"Feature","geometry":{"type":"Polygon","coordinates":[[[9.3122,45.1195],[9.3006,45.1247],[9.2871,45.1264],[9.268,45.1233],[9.2616,45.12],[9.2675,45.1088],[9.2798,45.0936],[9.2866,45.1001],[9.3004,45.1052],[9.3122,45.1195]]]},"properties":{"name":"San Cipriano Po","com_istat_code":"018133"}},
{"type":"Feature","geometry":{"type":"Polygon","coordinates":[[[9.3694,45.0237],[9.3756,45.0404],[9.3708,45.0482],[9.3627,45.0466],[9.3639,45.0429],[9.34,45.0353],[9.3276,45.0255],[9.3423,45.0159],[9.359,45.0261],[9.3694,45.0237]]]},"properties":{"name":"San Damiano al Colle","com_istat_code":"018134"}},
{"type":"Feature","geometry":{"type":"Polygon","coordinates":[[[9.2042,45.2505],[9.1983,45.2522],[9.1846,45.247],[9.1736,45.2481],[9.1689,45.2461],[9.1589,45.232],[9.1901,45.2289],[9.2097,45.2204],[9.2128,45.2275],[9.209,45.2374],[9.2126,45.2508],[9.2042,45.2505]]]},"properties":{"name":"San Genesio ed Uniti","com_istat_code":"018135"}},
{"type":"Feature","geometry":{"type":"Polygon","coordinates":[[[8.8229,45.1974],[8.7988,45.205],[8.798,45.2],[8.7826,45.1981],[8.7743,45.1845],[8.7462,45.1819],[8.7394,45.175],[8.7373,45.169],[8.7612,45.1545],[8.7584,45.1478],[8.7701,45.1492],[8.7906,45.1442],[8.7963,45.1567],[8.8058,45.1566],[8.8093,45.167],[8.8187,45.1786],[8.8229,45.1974]]]},"properties":{"name":"San Giorgio di Lomellina","com_istat_code":"018136"}},
{"type":"Feature","geometry":{"type":"Polygon","coordinates":[[[9.1425,45.1652],[9.1385,45.1742],[9.1131,45.1754],[9.1103,45.1821],[9.0808,45.1591],[9.0867,45.1518],[9.1008,45.1536],[9.123,45.1371],[9.1372,45.1408],[9.1471,45.1506],[9.1425,45.1652]]]},"properties":{"name":"San Martino Siccomario","com_istat_code":"018137"}},
{"type":"Feature","geometry":{"type":"Polygon","coordinates":[[[8.9279,45.1224],[8.9125,45.1215],[8.8917,45.1166],[8.885,45.1178],[8.8759,45.1011],[8.8826,45.0723],[8.9062,45.0871],[8.9148,45.0855],[8.9166,45.0717],[8.9311,45.0657],[8.942,45.0724],[8.9389,45.0808],[8.925,45.0867],[8.9241,45.0914],[8.9361,45.0922],[8.9518,45.0747],[8.9482,45.0838],[8.9538,45.0936],[8.9498,45.1015],[8.9392,45.1072],[8.9347,45.1206],[8.9279,45.1224]]]},"properties":{"name":"Sannazzaro de' Burgondi","com_istat_code":"018138"}},
{"type":"Feature","geometry":{"type":"Polygon","coordinates":[[[9.4174,45.1805],[9.408,45.1854],[9.3841,45.1835],[9.3847,45.1769],[9.3825,45.1691],[9.3897,45.1487],[9.4108,45.1503],[9.4179,45.1278],[9.4239,45.1238],[9.435,45.1276],[9.4482,45.1305],[9.4587,45.1392],[9.4644,45.1418],[9.4527,45.1543],[9.4371,45.1603],[9.4313,45.1601],[9.4215,45.1821],[9.4174,45.1805]]]},"properties":{"name":"Santa Cristina e Bissone","com_istat_code":"018139"}},
{"type":"Feature","geometry":{"type":"Polygon","coordinates":[[[9.1952,45.0577],[9.1722,45.0593],[9.1679,45.0516],[9.163,45.0382],[9.163,45.0351],[9.1867,45.0164],[9.215,45.0212],[9.2128,45.029],[9.2016,45.0296],[9.196,45.0389],[9.1952,45.0577]]]},"properties":{"name":"Santa Giuletta","com_istat_code":"018140"}},
{"type":"Feature","geometry":{"type":"Polygon","coordinates":[[[9.2267,45.2366],[9.209,45.2374],[9.2128,45.2275],[9.2097,45.2204],[9.2148,45.2151],[9.229,45.2104],[9.2402,45.2133],[9.25,45.2205],[9.2505,45.2288],[9.2296,45.2307],[9.2267,45.2366]]]},"properties":{"name":"Sant'Alessio con Vialone","com_istat_code":"018141"}},
{"type":"Feature","geometry":{"type":"Polygon","coordinates":[[[9.287,44.7725],[9.2786,44.7785],[9.2634,44.7838],[9.2464,44.7819],[9.2368,44.7895],[9.2114,44.7777],[9.2101,44.7599],[9.2136,44.7523],[9.211,44.7345],[9.2028,44.7221],[9.2072,44.7055],[9.2003,44.6864],[9.2168,44.6835],[9.2421,44.6875],[9.2323,44.7033],[9.2351,44.7164],[9.233,44.724],[9.2375,44.7401],[9.2592,44.7482],[9.2662,44.7635],[9.2859,44.7594],[9.287,44.7725]]]},"properties":{"name":"Santa Margherita di Staffora","com_istat_code":"018142"}},
{"type":"Feature","geometry":{"type":"Polygon","coordinates":[[[9.2943,45.0115],[9.283,45.0084],[9.2754,45.0152],[9.2593,45.0048],[9.2707,44.9991],[9.2847,44.9959],[9.2991,44.9812],[9.2989,44.9735],[9.3111,44.968],[9.3246,44.956],[9.3375,44.9654],[9.3355,44.9747],[9.3474,44.9971],[9.3246,44.9945],[9.3213,45.0053],[9.3057,45.0068],[9.2943,45.0115]]]},"properties":{"name":"Santa Maria della Versa","com_istat_code":"018143"}},
{"type":"Feature","geometry":{"type":"Polygon","coordinates":[[[8.6589,45.2637],[8.6475,45.2632],[8.6332,45.2517],[8.6252,45.2359],[8.6287,45.2222],[8.6363,45.2232],[8.6511,45.2156],[8.6596,45.2214],[8.6645,45.2277],[8.6574,45.2432],[8.6548,45.2558],[8.6589,45.2637]]]},"properties":{"name":"Sant'Angelo Lomellina","com_istat_code":"018144"}},
{"type":"Feature","geometry":{"type":"Polygon","coordinates":[[[9.3874,45.1195],[9.3605,45.1307],[9.3536,45.1024],[9.3843,45.0963],[9.3874,45.1195]]]},"properties":{"name":"San Zenone al Po","com_istat_code":"018145"}},
{"type":"Feature","geometry":{"type":"Polygon","coordinates":[[[8.7009,45.1344],[8.6566,45.1365],[8.6472,45.1253],[8.6472,45.1114],[8.6308,45.1108],[8.6135,45.1024],[8.6234,45.0983],[8.6219,45.0909],[8.6366,45.0838],[8.646,45.0753],[8.6623,45.0757],[8.674,45.0827],[8.6886,45.0982],[8.6925,45.096],[8.699,45.1128],[8.7116,45.1245],[8.7009,45.1344]]]},"properties":{"name":"Sartirana Lomellina","com_istat_code":"018146"}},
{"type":"Feature","geometry":{"type":"Polygon","coordinates":[[[8.9279,45.1224],[8.9353,45.1292],[8.9183,45.1445],[8.9095,45.1468],[8.8964,45.1448],[8.8816,45.1418],[8.8675,45.1266],[8.885,45.1178],[8.8917,45.1166],[8.9125,45.1215],[8.9279,45.1224]]]},"properties":{"name":"Scaldasole","com_istat_code":"018147"}},
{"type":"Feature","geometry":{"type":"Polygon","coordinates":[[[8.7227,45.1591],[8.7204,45.1485],[8.7076,45.1458],[8.7009,45.1344],[8.7116,45.1245],[8.7389,45.1222],[8.7422,45.1292],[8.7546,45.1275],[8.7504,45.1355],[8.7444,45.145],[8.7227,45.1591]]]},"properties":{"name":"Semiana","com_istat_code":"018148"}},
{"type":"Feature","geometry":{"type":"MultiPolygon","coordinates":[[[[8.9716,45.0472],[8.9715,45.0552],[8.959,45.0615],[8.9479,45.0598],[8.942,45.0724],[8.9311,45.0657],[8.932,45.0635],[8.9304,45.0574],[8.9341,45.0524],[8.9301,45.0438],[8.9354,45.0367],[8.9228,45.0329],[8.9263,45.0261],[8.9457,45.0239],[8.9711,45.0345],[8.9716,45.0472]]],[[[8.9389,45.0808],[8.928,45.0875],[8.925,45.0867],[8.9389,45.0808]]]]},"properties":{"name":"Silvano Pietra","com_istat_code":"018149"}},
{"type":"Feature","geometry":{"type":"Polygon","coordinates":[[[9.246,45.3245],[9.2308,45.3312],[9.2183,45.3261],[9.2017,45.3348],[9.1966,45.317],[9.1821,45.3107],[9.1937,45.295],[9.2007,45.2913],[9.2163,45.2855],[9.2145,45.2988],[9.223,45.3198],[9.24,45.3175],[9.246,45.3245]]]},"properties":{"name":"Siziano","com_istat_code":"018150"}},
{"type":"Feature","geometry":{"type":"Polygon","coordinates":[[[9.07,45.1501],[9.0686,45.1423],[9.0596,45.1309],[9.0511,45.1148],[9.0639,45.1068],[9.0811,45.096],[9.0884,45.0992],[9.0948,45.1215],[9.115,45.1161],[9.1127,45.1218],[9.0916,45.1421],[9.0804,45.1435],[9.07,45.1501]]]},"properties":{"name":"Sommo","com_istat_code":"018151"}},
{"type":"Feature","geometry":{"type":"Polygon","coordinates":[[[9.3503,45.1332],[9.3296,45.1404],[9.3122,45.1195],[9.3004,45.1052],[9.3036,45.1041],[9.3438,45.1035],[9.3536,45.1024],[9.3605,45.1307],[9.3503,45.1332]]]},"properties":{"name":"Spessa","com_istat_code":"018152"}},
{"type":"Feature","geometry":{"type":"Polygon","coordinates":[[[9.3004,45.1052],[9.2866,45.1001],[9.2798,45.0936],[9.2785,45.0614],[9.2916,45.0533],[9.3041,45.0534],[9.3189,45.0541],[9.3393,45.0685],[9.3447,45.0694],[9.3346,45.0798],[9.3331,45.0901],[9.3146,45.0862],[9.3011,45.0941],[9.3036,45.1041],[9.3004,45.1052]]]},"properties":{"name":"Stradella","com_istat_code":"018153"}},
{"type":"Feature","geometry":{"type":"Polygon","coordinates":[[[8.7374,45.0462],[8.7299,45.043],[8.7161,45.0457],[8.7081,45.0382],[8.7139,45.037],[8.7206,45.0268],[8.728,45.0228],[8.7438,45.0237],[8.7681,45.0069],[8.7787,45.0132],[8.7775,45.0224],[8.7536,45.0246],[8.7471,45.0422],[8.7374,45.0462]]]},"properties":{"name":"Suardi","com_istat_code":"018154"}},
{"type":"Feature","geometry":{"type":"Polygon","coordinates":[[[9.1058,44.9761],[9.0943,44.9765],[9.0924,44.9822],[9.077,44.9962],[9.0718,44.9972],[9.0685,44.9779],[9.0723,44.9656],[9.0814,44.9585],[9.0793,44.9384],[9.0838,44.9307],[9.0978,44.9335],[9.1158,44.9457],[9.1271,44.9563],[9.1078,44.9621],[9.1058,44.9761]]]},"properties":{"name":"Torrazza Coste","com_istat_code":"018155"}},
{"type":"Feature","geometry":{"type":"Polygon","coordinates":[[[8.7296,45.0663],[8.7196,45.0756],[8.7219,45.0837],[8.7038,45.0883],[8.6925,45.096],[8.6886,45.0982],[8.674,45.0827],[8.6623,45.0757],[8.646,45.0753],[8.6373,45.0661],[8.6447,45.0609],[8.6754,45.0543],[8.6835,45.0551],[8.6843,45.0651],[8.692,45.0682],[8.6998,45.0627],[8.7195,45.0583],[8.7296,45.0663]]]},"properties":{"name":"Torre Beretti e Castellaro","com_istat_code":"018156"}},
{"type":"Feature","geometry":{"type":"Polygon","coordinates":[[[9.3104,45.249],[9.3039,45.2449],[9.3022,45.2295],[9.3107,45.2252],[9.3368,45.2327],[9.329,45.244],[9.3224,45.2441],[9.3104,45.249]]]},"properties":{"name":"Torre d'Arese","com_istat_code":"018157"}},
{"type":"Feature","geometry":{"type":"Polygon","coordinates":[[[9.3557,45.1443],[9.3351,45.1582],[9.3196,45.152],[9.3336,45.1453],[9.3296,45.1404],[9.3503,45.1332],[9.3553,45.1435],[9.3557,45.1443]]]},"properties":{"name":"Torre de' Negri","com_istat_code":"018158"}},
{"type":"Feature","geometry":{"type":"Polygon","coordinates":[[[9.0543,45.2495],[9.0414,45.2527],[9.035,45.2481],[9.0413,45.2384],[9.0408,45.223],[9.0573,45.2201],[9.0639,45.2124],[9.0773,45.2061],[9.079,45.1899],[9.0849,45.1996],[9.0981,45.1997],[9.1089,45.2097],[9.0947,45.2267],[9.078,45.2317],[9.081,45.2366],[9.0543,45.2495]]]},"properties":{"name":"Torre d'Isola","com_istat_code":"018159"}},
{"type":"Feature","geometry":{"type":"Polygon","coordinates":[[[9.3344,45.27],[9.3298,45.2761],[9.2981,45.2977],[9.2936,45.3062],[9.2745,45.2833],[9.2661,45.2857],[9.2567,45.2759],[9.2671,45.2617],[9.2678,45.2551],[9.2772,45.253],[9.2928,45.2642],[9.3152,45.2596],[9.325,45.2688],[9.3344,45.27]]]},"properties":{"name":"Torrevecchia Pia","com_istat_code":"018160"}},
{"type":"Feature","geometry":{"type":"Polygon","coordinates":[[[9.1867,45.0164],[9.163,45.0351],[9.163,45.0382],[9.1569,45.0331],[9.1594,45.0205],[9.1709,45.0112],[9.1816,45.0099],[9.1867,45.0164]]]},"properties":{"name":"Torricella Verzate","com_istat_code":"018161"}},
{"type":"Feature","geometry":{"type":"Polygon","coordinates":[[[9.2139,45.1564],[9.2056,45.1623],[9.1854,45.1575],[9.1749,45.1596],[9.1646,45.1716],[9.1425,45.1652],[9.1471,45.1506],[9.1372,45.1408],[9.1523,45.1224],[9.166,45.1334],[9.1744,45.1407],[9.1944,45.1449],[9.1955,45.1382],[9.2061,45.1363],[9.2227,45.1406],[9.2216,45.1423],[9.2139,45.1564]]]},"properties":{"name":"Travacò Siccomario","com_istat_code":"018162"}},
{"type":"Feature","geometry":{"type":"Polygon","coordinates":[[[9.0466,45.2723],[9.0337,45.2734],[9.0322,45.2695],[9.0414,45.2527],[9.0543,45.2495],[9.0599,45.2564],[9.0602,45.2635],[9.0466,45.2723]]]},"properties":{"name":"Trivolzio","com_istat_code":"018163"}},
{"type":"Feature","geometry":{"type":"Polygon","coordinates":[[[8.9014,45.2194],[8.8937,45.2323],[8.8811,45.2341],[8.8683,45.2309],[8.846,45.2319],[8.8229,45.2272],[8.804,45.2303],[8.7989,45.2159],[8.7988,45.205],[8.8229,45.1974],[8.8379,45.1828],[8.8582,45.1721],[8.868,45.171],[8.8693,45.1811],[8.8774,45.1813],[8.8767,45.1852],[8.8928,45.1995],[8.9014,45.2194]]]},"properties":{"name":"Tromello","com_istat_code":"018164"}},
{"type":"Feature","geometry":{"type":"Polygon","coordinates":[[[9.0643,45.3049],[9.0364,45.3013],[9.0301,45.2965],[9.0187,45.2806],[9.0151,45.2759],[9.0235,45.2708],[9.0337,45.2734],[9.0466,45.2723],[9.0431,45.2842],[9.0612,45.2883],[9.0643,45.3049]]]},"properties":{"name":"Trovo","com_istat_code":"018165"}},
{"type":"Feature","geometry":{"type":"Polygon","coordinates":[[[9.2094,44.8982],[9.1846,44.9031],[9.1666,44.8925],[9.1543,44.8918],[9.1433,44.8805],[9.1375,44.8748],[9.1523,44.8576],[9.1624,44.8525],[9.1888,44.8559],[9.1839,44.8425],[9.2004,44.8383],[9.2117,44.8418],[9.2189,44.8494],[9.2148,44.8606],[9.2129,44.8778],[9.214,44.8955],[9.2094,44.8982]]]},"properties":{"name":"Val di Nizza","com_istat_code":"018166"}},
{"type":"Feature","geometry":{"type":"Polygon","coordinates":[[[8.8957,45.1498],[8.871,45.1657],[8.868,45.171],[8.8582,45.1721],[8.8513,45.1551],[8.8551,45.1455],[8.8512,45.129],[8.8675,45.1266],[8.8816,45.1418],[8.8964,45.1448],[8.8957,45.1498]]]},"properties":{"name":"Valeggio","com_istat_code":"018167"}},
{"type":"Feature","geometry":{"type":"Polygon","coordinates":[[[8.6457,45.1793],[8.6271,45.1765],[8.6277,45.1646],[8.6163,45.1579],[8.6294,45.1566],[8.6473,45.1393],[8.6566,45.1365],[8.7009,45.1344],[8.7076,45.1458],[8.7204,45.1485],[8.7227,45.1591],[8.711,45.1626],[8.7155,45.1702],[8.7008,45.1758],[8.6871,45.1707],[8.6679,45.173],[8.6457,45.1793]]]},"properties":{"name":"Valle Lomellina","com_istat_code":"018168"}},
{"type":"Feature","geometry":{"type":"Polygon","coordinates":[[[9.2535,45.1655],[9.2575,45.1713],[9.2345,45.1828],[9.2308,45.1827],[9.2172,45.1703],[9.2139,45.1564],[9.2216,45.1423],[9.2274,45.1587],[9.2518,45.1606],[9.2535,45.1655]]]},"properties":{"name":"Valle Salimbene","com_istat_code":"018169"}},
{"type":"Feature","geometry":{"type":"Polygon","coordinates":[[[9.2189,44.8494],[9.2117,44.8418],[9.2004,44.8383],[9.1839,44.8425],[9.1888,44.8559],[9.1624,44.8525],[9.1509,44.8479],[9.1557,44.831],[9.1754,44.8278],[9.1549,44.8216],[9.156,44.8154],[9.1597,44.8063],[9.1735,44.7961],[9.1717,44.7717],[9.1942,44.7568],[9.2136,44.7523],[9.2101,44.7599],[9.2114,44.7777],[9.2368,44.7895],[9.2391,44.795],[9.2312,44.8155],[9.27,44.8251],[9.2868,44.8248],[9.2742,44.8386],[9.2581,44.8477],[9.2427,44.843],[9.2325,44.8501],[9.2189,44.8494]]]},"properties":{"name":"Varzi","com_istat_code":"018171"}},
{"type":"Feature","geometry":{"type":"Polygon","coordinates":[[[8.7394,45.175],[8.7214,45.1811],[8.7207,45.1808],[8.7241,45.1743],[8.7155,45.1702],[8.711,45.1626],[8.7227,45.1591],[8.7444,45.145],[8.7504,45.1355],[8.757,45.1384],[8.7584,45.1478],[8.7612,45.1545],[8.7373,45.169],[8.7394,45.175]]]},"properties":{"name":"Velezzo Lomellina","com_istat_code":"018172"}},
{"type":"Feature","geometry":{"type":"Polygon","coordinates":[[[9.1275,45.2771],[9.1223,45.2766],[9.1156,45.2941],[9.092,45.2812],[9.079,45.2797],[9.0829,45.2685],[9.0913,45.2598],[9.1044,45.2539],[9.1115,45.2662],[9.1217,45.2682],[9.1275,45.2771]]]},"properties":{"name":"Vellezzo Bellini","com_istat_code":"018173"}},
{"type":"Feature","geometry":{"type":"Polygon","coordinates":[[[9.1191,45.0403],[9.1168,45.0486],[9.1079,45.0503],[9.0987,45.0479],[9.0973,45.0295],[9.1082,45.0347],[9.1191,45.0403]]]},"properties":{"name":"Verretto","com_istat_code":"018174"}},
{"type":"Feature","geometry":{"type":"Polygon","coordinates":[[[9.2086,45.1119],[9.2016,45.1207],[9.1867,45.1199],[9.1741,45.13],[9.1744,45.1407],[9.166,45.1334],[9.1584,45.1095],[9.1528,45.1005],[9.1569,45.0908],[9.1539,45.0857],[9.1639,45.085],[9.1733,45.0938],[9.1792,45.1047],[9.1874,45.1079],[9.2018,45.1072],[9.2086,45.1119]]]},"properties":{"name":"Verrua Po","com_istat_code":"018175"}},
{"type":"Feature","geometry":{"type":"Polygon","coordinates":[[[9.24,45.3175],[9.223,45.3198],[9.2145,45.2988],[9.2163,45.2855],[9.2007,45.2913],[9.2008,45.2911],[9.2112,45.2811],[9.2134,45.2745],[9.2356,45.2763],[9.2411,45.2707],[9.2551,45.2667],[9.2596,45.2526],[9.2678,45.2551],[9.2671,45.2617],[9.2567,45.2759],[9.2661,45.2857],[9.2472,45.3011],[9.24,45.3175]]]},"properties":{"name":"Vidigulfo","com_istat_code":"018176"}},
{"type":"Feature","geometry":{"type":"Polygon","coordinates":[[[8.8664,45.3547],[8.8233,45.345],[8.8105,45.3454],[8.8067,45.3343],[8.7933,45.3349],[8.7875,45.3253],[8.7927,45.3132],[8.7876,45.3103],[8.7928,45.294],[8.8003,45.2819],[8.8032,45.2775],[8.8239,45.28],[8.8355,45.278],[8.8414,45.2826],[8.8664,45.2795],[8.8873,45.2813],[8.8943,45.2715],[8.9143,45.2746],[8.9249,45.2856],[8.9328,45.2842],[8.9418,45.2752],[8.9676,45.2605],[8.9827,45.2645],[8.9829,45.265],[8.9741,45.2736],[8.9446,45.2915],[8.9439,45.3136],[8.9335,45.3195],[8.9235,45.3169],[8.9063,45.3264],[8.9104,45.3326],[8.887,45.3399],[8.8659,45.3443],[8.8664,45.3547]]]},"properties":{"name":"Vigevano","com_istat_code":"018177"}},
{"type":"Feature","geometry":{"type":"Polygon","coordinates":[[[8.8001,45.0921],[8.7853,45.0982],[8.7729,45.0977],[8.7706,45.0877],[8.7797,45.075],[8.7935,45.0748],[8.8041,45.0821],[8.8001,45.0921]]]},"properties":{"name":"Villa Biscossi","com_istat_code":"018178"}},
{"type":"Feature","geometry":{"type":"Polygon","coordinates":[[[9.0525,45.1712],[9.0375,45.18],[9.0227,45.181],[9.0302,45.1528],[9.0508,45.15],[9.0558,45.1619],[9.0525,45.1712]]]},"properties":{"name":"Villanova d'Ardenghi","com_istat_code":"018179"}},
{"type":"Feature","geometry":{"type":"Polygon","coordinates":[[[9.401,45.2101],[9.3976,45.2185],[9.3785,45.232],[9.3713,45.244],[9.3593,45.2456],[9.3502,45.2405],[9.3279,45.2497],[9.3224,45.2441],[9.329,45.244],[9.3368,45.2327],[9.3404,45.2324],[9.3492,45.2144],[9.3436,45.2058],[9.3577,45.2098],[9.3699,45.2068],[9.3913,45.2064],[9.401,45.2101]]]},"properties":{"name":"Villanterio","com_istat_code":"018180"}},
{"type":"Feature","geometry":{"type":"Polygon","coordinates":[[[9.3022,45.2295],[9.2884,45.2299],[9.2841,45.2223],[9.2902,45.2172],[9.2908,45.2079],[9.3017,45.1961],[9.3003,45.1924],[9.3111,45.1856],[9.3216,45.1886],[9.3155,45.203],[9.3324,45.2067],[9.3308,45.2104],[9.3107,45.2252],[9.3022,45.2295]]]},"properties":{"name":"Vistarino","com_istat_code":"018181"}},
{"type":"Feature","geometry":{"type":"Polygon","coordinates":[[[9.0542,45.0625],[9.0331,45.0618],[9.0295,45.069],[9.0129,45.0414],[9.0009,45.0352],[8.9911,45.0404],[8.9833,45.0457],[8.9716,45.0472],[8.9711,45.0345],[8.9649,45.0014],[8.9606,44.9873],[8.9781,44.9672],[8.9872,44.9634],[9.0152,44.9588],[9.017,44.9635],[9.0314,44.9727],[9.0479,44.9859],[9.0659,44.9926],[9.0685,44.9971],[9.0674,45.0137],[9.07,45.0201],[9.0682,45.0238],[9.0354,45.031],[9.0398,45.0453],[9.0474,45.0428],[9.0549,45.0492],[9.0542,45.0625]]]},"properties":{"name":"Voghera","com_istat_code":"018182"}},
{"type":"Feature","geometry":{"type":"Polygon","coordinates":[[[9.323,44.9497],[9.2872,44.9557],[9.2845,44.9527],[9.2838,44.9503],[9.3098,44.9354],[9.3215,44.944],[9.323,44.9497]]]},"properties":{"name":"Volpara","com_istat_code":"018183"}},
{"type":"Feature","geometry":{"type":"Polygon","coordinates":[[[9.2774,44.8956],[9.2673,44.901],[9.253,44.9021],[9.2485,44.8931],[9.2561,44.883],[9.2487,44.8601],[9.2325,44.8501],[9.2427,44.843],[9.2581,44.8477],[9.2742,44.8386],[9.2868,44.8248],[9.2855,44.835],[9.3103,44.8574],[9.3117,44.8645],[9.3265,44.8729],[9.3241,44.8784],[9.3072,44.8761],[9.2901,44.8822],[9.2928,44.8903],[9.2774,44.8956]]]},"properties":{"name":"Zavattarello","com_istat_code":"018184"}},
{"type":"Feature","geometry":{"type":"Polygon","coordinates":[[[9.2042,45.2505],[9.2068,45.2625],[9.1964,45.273],[9.1848,45.2712],[9.1721,45.255],[9.1736,45.2481],[9.1846,45.247],[9.1983,45.2522],[9.2042,45.2505]]]},"properties":{"name":"Zeccone","com_istat_code":"018185"}},
{"type":"Feature","geometry":{"type":"Polygon","coordinates":[[[8.688,45.2144],[8.6707,45.2109],[8.6596,45.2214],[8.6511,45.2156],[8.6347,45.2118],[8.6301,45.1972],[8.6444,45.1924],[8.6457,45.1793],[8.6679,45.173],[8.6871,45.1707],[8.7008,45.1758],[8.7155,45.1702],[8.7241,45.1743],[8.7207,45.1808],[8.7149,45.1925],[8.692,45.2084],[8.688,45.2144]]]},"properties":{"name":"Zeme","com_istat_code":"018186"}},
{"type":"Feature","geometry":{"type":"Polygon","coordinates":[[[9.3444,45.0494],[9.3553,45.0586],[9.3557,45.0682],[9.3447,45.0694],[9.3393,45.0685],[9.3189,45.0541],[9.3303,45.0417],[9.3444,45.0494]]]},"properties":{"name":"Zenevredo","com_istat_code":"018187"}},
{"type":"Feature","geometry":{"type":"Polygon","coordinates":[[[9.4136,45.1189],[9.3968,45.1211],[9.3874,45.1195],[9.3843,45.0963],[9.4204,45.0935],[9.4217,45.0983],[9.4111,45.1065],[9.4136,45.1189]]]},"properties":{"name":"Zerbo","com_istat_code":"018188"}},
{"type":"Feature","geometry":{"type":"Polygon","coordinates":[[[9.0408,45.223],[9.03,45.2319],[9.0147,45.2306],[9.0026,45.2351],[8.9897,45.2508],[8.9821,45.2535],[8.972,45.2518],[8.9582,45.2445],[8.962,45.2378],[8.973,45.2306],[8.968,45.2266],[8.9724,45.2145],[8.9905,45.2057],[8.99,45.2003],[9.0103,45.1922],[9.0342,45.1891],[9.0375,45.18],[9.0525,45.1712],[9.0565,45.181],[9.079,45.1899],[9.0773,45.2061],[9.0639,45.2124],[9.0573,45.2201],[9.0408,45.223]]]},"properties":{"name":"Zerbolò","com_istat_code":"018189"}},
{"type":"Feature","geometry":{"type":"Polygon","coordinates":[[[9.07,45.1501],[9.0678,45.1535],[9.0508,45.15],[9.0302,45.1528],[9.0137,45.1414],[8.9962,45.1418],[8.9889,45.1199],[8.9909,45.1133],[8.9953,45.0923],[8.9919,45.086],[9.0005,45.0835],[9.0044,45.0745],[9.0176,45.0787],[9.0177,45.0889],[9.0297,45.0894],[9.0226,45.0992],[9.0181,45.1122],[9.0307,45.1166],[9.0489,45.1011],[9.0574,45.1027],[9.0639,45.1068],[9.0511,45.1148],[9.0596,45.1309],[9.0686,45.1423],[9.07,45.1501]]]},"properties":{"name":"Zinasco","com_istat_code":"018190"}},
{"type":"Feature","geometry":{"type":"MultiPolygon","coordinates":[[[[8.9087,45.0506],[8.8934,45.0584],[8.8916,45.0513],[8.9002,45.0436],[8.9228,45.0329],[8.9354,45.0367],[8.9301,45.0438],[8.9218,45.0467],[8.9193,45.0495],[8.9087,45.0506]]],[[[8.928,45.0875],[8.9241,45.0914],[8.925,45.0867],[8.928,45.0875]]]]},"properties":{"name":"Cornale e Bastida","com_istat_code":"018191"}},
{"type":"Feature","geometry":{"type":"Polygon","coordinates":[[[9.3704,45.184],[9.3527,45.1925],[9.3434,45.193],[9.3327,45.1819],[9.3433,45.1789],[9.3471,45.1667],[9.3574,45.1541],[9.3557,45.1443],[9.3553,45.1435],[9.3729,45.1407],[9.3889,45.1432],[9.3897,45.1487],[9.3825,45.1691],[9.3847,45.1769],[9.3704,45.184]]]},"properties":{"name":"Corteolona e Genzone","com_istat_code":"018192"}},
{"type":"Feature","geometry":{"type":"Polygon","coordinates":[[[9.3098,44.9354],[9.2838,44.9503],[9.2845,44.9527],[9.274,44.9531],[9.2646,44.9469],[9.2686,44.9344],[9.2579,44.9323],[9.237,44.9457],[9.2264,44.944],[9.2311,44.9273],[9.2332,44.9187],[9.2188,44.9115],[9.2094,44.8982],[9.214,44.8955],[9.2129,44.8778],[9.2148,44.8606],[9.2189,44.8494],[9.2325,44.8501],[9.2487,44.8601],[9.2561,44.883],[9.2485,44.8931],[9.253,44.9021],[9.2673,44.901],[9.2774,44.8956],[9.293,44.9205],[9.2863,44.934],[9.3098,44.9354]]]},"properties":{"name":"Colli Verdi","com_istat_code":"018193"}}
]}